*******************************************************************************
JPL/HORIZONS             4619 Polyakhova (1977 RB7)        2023-Sep-05 05:19:15
Rec #:    4619 (+COV) Soln.date: 2023-Aug-23_20:00:55   # obs: 3481 (1966-2023)
 
IAU76/J2000 helio. ecliptic osc. elements (au, days, deg., period=Julian yrs):
 
  EPOCH=  2457722.5 ! 2016-Nov-30.00 (TDB)         Residual RMS= .25469
   EC= .03057017455289879  QR= 2.607223180248572   TP= 2458284.0386795942
   OM= 266.8277081363726   W=  195.0399890652789   IN= 1.817815026799216
   A= 2.689439825153017    MA= 234.5152346378053   ADIST= 2.771656470057462
   PER= 4.41063            N= .223465934           ANGMOM= .028197417
   DAN= 2.76867            DDN= 2.60988            L= 101.8604709
   B= -.4716367            MOID= 1.62382996        TP= 2018-Jun-14.5386795942
 
Asteroid physical parameters (km, seconds, rotational period in hours):
   GM= n.a.                RAD= 4.56               ROTPER= n.a.
   H= 13.13                G= .150                 B-V= n.a.
                           ALBEDO= .161            STYP= L

ASTEROID comments: 
1: soln ref.= JPL#51, OCC=0
2: source=ORB
*******************************************************************************


*******************************************************************************
Ephemeris / API_USER Tue Sep  5 05:19:15 2023 Pasadena, USA      / Horizons
*******************************************************************************
Target body name: 4619 Polyakhova (1977 RB7)      {source: JPL#51}
Center body name: Solar System Barycenter (0)     {source: DE441}
Center-site name: BODY CENTER
*******************************************************************************
Start time      : A.D. 2023-Aug-12 00:00:00.0000 TDB
Stop  time      : A.D. 2023-Aug-13 00:00:00.0000 TDB
Step-size       : 2880 minutes
*******************************************************************************
Center geodetic : 0.0, 0.0, 0.0                   {E-lon(deg),Lat(deg),Alt(km)}
Center cylindric: 0.0, 0.0, 0.0                   {E-lon(deg),Dxy(km),Dz(km)}
Center radii    : (undefined)
Small perturbers: Yes                             {source: SB441-N16}
Output units    : KM-S
Calendar mode   : Mixed Julian/Gregorian
Output type     : GEOMETRIC cartesian states
Output format   : 2 (position and velocity)
Reference frame : Ecliptic of J2000.0
*******************************************************************************
Initial IAU76/J2000 heliocentric ecliptic osculating elements (au, days, deg.):
  EPOCH=  2457722.5 ! 2016-Nov-30.00 (TDB)         Residual RMS= .25469        
   EC= .03057017455289879  QR= 2.607223180248572   TP= 2458284.0386795942      
   OM= 266.8277081363726   W=  195.0399890652789   IN= 1.817815026799216       
  Equivalent ICRF heliocentric cartesian coordinates (au, au/d):
   X= 2.451762411573438E+00  Y=-1.149219899360984E+00  Z=-4.112349630919789E-01
  VX= 4.351317828880616E-03 VY= 8.514965904157901E-03 VZ= 3.824112695037722E-03
Asteroid physical parameters (km, seconds, rotational period in hours):        
   GM= n.a.                RAD= 4.56               ROTPER= n.a.                
   H= 13.13                G= .150                 B-V= n.a.                   
                           ALBEDO= .161            STYP= L                     
*******************************************************************************
JDTDB
   X     Y     Z
   VX    VY    VZ
*******************************************************************************
$$SOE
2460168.500000000 = A.D. 2023-Aug-12 00:00:00.0000 TDB 
 X =-3.846914967980556E+08 Y = 9.752229633513501E+07 Z =-1.227510974128123E+07
 VX=-4.989645907633155E+00 VY=-1.777956496143876E+01 VZ=-1.250567924889516E-01
$$EOE
*******************************************************************************
 
TIME

  Barycentric Dynamical Time ("TDB" or T_eph) output was requested. This
continuous coordinate time is equivalent to the relativistic proper time
of a clock at rest in a reference frame co-moving with the solar system
barycenter but outside the system's gravity well. It is the independent
variable in the solar system relativistic equations of motion.

  TDB runs at a uniform rate of one SI second per second and is independent
of irregularities in Earth's rotation.
 
CALENDAR SYSTEM

  Mixed calendar mode was active such that calendar dates after AD 1582-Oct-15
(if any) are in the modern Gregorian system. Dates prior to 1582-Oct-5 (if any)
are in the Julian calendar system, which is automatically extended for dates
prior to its adoption on 45-Jan-1 BC.  The Julian calendar is useful for
matching historical dates. The Gregorian calendar more accurately corresponds
to the Earth's orbital motion and seasons. A "Gregorian-only" calendar mode is
available if such physical events are the primary interest.

REFERENCE FRAME AND COORDINATES

  Ecliptic at the standard reference epoch

    Reference epoch: J2000.0
    X-Y plane: adopted Earth orbital plane at the reference epoch
               Note: IAU76 obliquity of 84381.448 arcseconds wrt ICRF X-Y plane
    X-axis   : ICRF
    Z-axis   : perpendicular to the X-Y plane in the directional (+ or -) sense
               of Earth's north pole at the reference epoch.

  Symbol meaning:

    JDTDB    Julian Day Number, Barycentric Dynamical Time
      X      X-component of position vector (km)
      Y      Y-component of position vector (km)
      Z      Z-component of position vector (km)
      VX     X-component of velocity vector (km/sec)                           
      VY     Y-component of velocity vector (km/sec)                           
      VZ     Z-component of velocity vector (km/sec)                           

ABERRATIONS AND CORRECTIONS

 Geometric state vectors have NO corrections or aberrations applied.

Computations by ...

    Solar System Dynamics Group, Horizons On-Line Ephemeris System
    4800 Oak Grove Drive, Jet Propulsion Laboratory
    Pasadena, CA  91109   USA

    General site: https://ssd.jpl.nasa.gov/
    Mailing list: https://ssd.jpl.nasa.gov/email_list.html
    System news : https://ssd.jpl.nasa.gov/horizons/news.html
    User Guide  : https://ssd.jpl.nasa.gov/horizons/manual.html
    Connect     : browser        https://ssd.jpl.nasa.gov/horizons/app.html#/x
                  API            https://ssd-api.jpl.nasa.gov/doc/horizons.html
                  command-line   telnet ssd.jpl.nasa.gov 6775
                  e-mail/batch   https://ssd.jpl.nasa.gov/ftp/ssd/hrzn_batch.txt
                  scripts        https://ssd.jpl.nasa.gov/ftp/ssd/SCRIPTS
    Author      : Jon.D.Giorgini@jpl.nasa.gov
*******************************************************************************
